[{"OBJECT_NAME":"ONEWEB-0244","OBJECT_ID":"2021-045K","EPOCH":"2026-03-09T23:19:17.319072","MEAN_MOTION":13.15547492,"ECCENTRICITY":0.0001602,"INCLINATION":87.8949,"RA_OF_ASC_NODE":278.9816,"ARG_OF_PERICENTER":94.8917,"MEAN_ANOMALY":265.2397,"EPHEMERIS_TYPE":0,"CLASSIFICATION_TYPE":"U","NORAD_CAT_ID":48776,"ELEMENT_SET_NO":999,"REV_AT_EPOCH":23192,"BSTAR":6.3754359e-5,"MEAN_MOTION_DOT":3.7e-7,"MEAN_MOTION_DDOT":0},{"OBJECT_NAME":"OBJECT D","OBJECT_ID":"2021-014D","EPOCH":"2026-03-09T21:49:22.484928","MEAN_MOTION":13.4459833,"ECCENTRICITY":0.01640963,"INCLINATION":63.4038,"RA_OF_ASC_NODE":101.0804,"ARG_OF_PERICENTER":1.3716,"MEAN_ANOMALY":358.7727,"EPHEMERIS_TYPE":0,"CLASSIFICATION_TYPE":"U","NORAD_CAT_ID":47694,"ELEMENT_SET_NO":999,"REV_AT_EPOCH":24733,"BSTAR":0.00024937269,"MEAN_MOTION_DOT":6.8e-7,"MEAN_MOTION_DDOT":0}]
